MOLNIYA 2-9             
1 07276U 74026A   20107.87124894 -.00000007  00000-0  65132-3 0  9992
2 07276  63.9987 350.3844 6815175 288.3000  12.6132  2.45095027229953
MOLNIYA 2-10            
1 07376U 74056A   20108.39672351  .00001194  00000-0  00000+0 0  9996
2 07376  63.5218 174.6855 6745832 292.7942  11.8565  2.01104815334497
MOLNIYA 1-S             
1 07392U 74060A   20109.48749925 -.00000112  00000-0  00000-0 0  9993
2 07392   7.0225 294.3194 0008290 176.3582 348.3953  1.00198812111606
MOLNIYA 1-29            
1 07780U 75036A   20109.12654088 -.00000259  00000-0 -77008-3 0  9992
2 07780  62.9316 320.7600 7394993 287.8989   9.2825  2.00641297329768
MOLNIYA 2-14            
1 08195U 75081A   20107.90544113 -.00001250  00000-0  32442-2 0  9997
2 08195  63.0569 287.6536 7312399 292.7014   8.6860  2.02068908326958
MOLNIYA 1-32            
1 08601U 76006A   20109.11791615  .00000404  00000-0 -96673-3 0  9990
2 08601  62.6257  59.5578 7399554 278.4003  11.5229  2.00086239 36908
MOLNIYA 1-36            
1 09880U 77021A   20109.21125396 -.00001609  00000-0  89821-4 0  9992
2 09880  62.4488  31.2971 7484673 283.8135   9.7844  2.00681050213551
MOLNIYA 3-8             
1 10455U 77105A   20109.01763546 -.00000961  00000-0 -29477-2 0  9998
2 10455  62.3158 119.4459 7244525 275.9907  13.1542  2.00770218311281
MOLNIYA 1-40            
1 10925U 78055A   20109.17430210  .00000172  00000-0 -31065-1 0  9999
2 10925  62.5130 154.4431 7045496 278.0069  13.9855  2.00723819306838
MOLNIYA 3-10            
1 11057U 78095A   20109.19133591  .00000527  00000-0  10468-3 0  9993
2 11057  62.7844 340.3575 5961799 297.4604  14.9378  4.09617475351354
MOLNIYA 3-13            
1 11896U 80063A   20108.39815131 -.00000007  00000-0 -16307-3 0  9993
2 11896  62.5915 237.2235 7181285 275.3974  13.7319  2.00667703291274
MOLNIYA 1-49            
1 12156U 81009A   20105.35660150  .00000278  00000-0  51478-2 0  9991
2 12156  62.1864 283.4640 7232568 251.7498  22.8250  2.05694443205159
MOLNIYA 1-52            
1 13012U 81123A   20107.90771163  .00001120  00000-0  00000+0 0  9999
2 13012  63.5240  35.9638 7239147 248.5166  24.6855  2.00470405280763
MOLNIYA 1-53            
1 13070U 82015A   20109.58389956 -.00001345  00000-0  14551-3 0  9995
2 13070  62.3339 330.4669 7478219 275.2777  11.6438  2.00427657279414
MOLNIYA 3-20            
1 13875U 83015A   20109.53449187  .00001470  00000-0  39897-1 0  9993
2 13875  63.5349 108.1253 7120162 255.6033 320.0791  2.00650475207852
MOLNIYA 1-56            
1 13890U 83019A   20107.48823332  .00000844  00000-0  00000-0 0  9991
2 13890  63.2311 133.2756 7096811 260.4195 155.6476  1.99940104270768
MOLNIYA 1-62            
1 15214U 84089A   20109.18460230  .00001487  00000-0  93424-2 0  9992
2 15214  62.7190 141.2789 7256854 264.5721  16.7958  1.97931058228614
MOLNIYA 1-63            
1 15429U 84124A   20105.86694219  .00000077  00000-0  00000-0 0  9997
2 15429  63.7000 241.6889 6613845 266.8479 343.9613  2.00332676258836
MOLNIYA 3-24            
1 15738U 85040A   20109.49572060  .00000104  00000-0  38096-2 0  9999
2 15738  63.8590 214.9550 6464846 252.5875 166.4995  2.55629200283672
MOLNIYA 3-27            
1 16393U 85117A   20106.38277931  .00000094  00000-0  00000+0 0  9995
2 16393  64.6562 171.6558 6523170 257.7804  27.1714  2.12399982257352
MOLNIYA 1-69            
1 17078U 86089A   20104.79252389  .00000842  00000-0  10157+0 0  9993
2 17078  64.1433 262.9058 6735323 266.6041 100.9694  2.00734493244890
MOLNIYA 3-31            
1 17328U 87008A   20108.34319290  .00000268  00000-0  00000-0 0  9992
2 17328  63.8321 211.5913 6695023 261.1124  23.5741  2.00657818239997
MOLNIYA 1-71            
1 18946U 88017A   20108.33898243 -.00000114  00000-0 -27249-1 0  9996
2 18946  63.5208 212.6006 6822784 261.6710  36.3305  2.00593623235225
MOLNIYA 1-75            
1 19807U 89014A   20108.92269174  .00001336  00000-0  13587-1 0  9996
2 19807  64.3069  18.8850 7051873 271.6869  15.9788  2.00338316228225
MOLNIYA 1-80            
1 21118U 91012A   20107.87491787 -.00000992  00000-0  00000-0 0  9998
2 21118  64.2791  63.5424 6859167 286.5391  12.8080  2.05251065214758
MOLNIYA 3-40            
1 21196U 91022A   20108.23282030 -.00000487  00000-0  00000-0 0  9994
2 21196  64.4572  56.4550 6895807 283.5133  13.4289  2.03000294213634
MOLNIYA 1-81            
1 21426U 91043A   20108.97213676  .00000061  00000-0  00000-0 0  9991
2 21426  63.9928  83.0687 6978548 272.2991  16.3304  2.00628885211308
MOLNIYA 3-41            
1 21706U 91065A   20109.18423972  .00001114  00000-0  13488-1 0  9997
2 21706  64.1939 248.4353 6778535 265.1902  74.0639  2.04344999210786
MOLNIYA 3-42            
1 22178U 92067A   20104.54702092 -.00000026  00000-0  00000-0 0  9999
2 22178  64.7273 307.6336 6767696 278.3275  15.7572  2.20432257206990
MOLNIYA 1-86            
1 22671U 93035A   20109.47742789  .00000013  00000-0  82186-4 0  9991
2 22671  63.1729 333.5142 4826205 355.8589   1.3356  5.62602146307852
MOLNIYA 1-87            
1 22949U 93079A   20109.38894437  .00001309  00000-0  00000-0 0  9995
2 22949  63.3833 179.0302 6844120 289.3121  12.1848  2.02861834 58918
MOLNIYA 1-88            
1 23420U 94081A   20108.15103450 -.00000051  00000-0 -16218-2 0  9991
2 23420  64.0847  19.8848 6029263 294.7305  15.4420  3.34494602220474
MOLNIYA 3-47            
1 23642U 95042A   20109.49510656 -.00000059  00000-0  76647-1 0  9991
2 23642  63.2230 162.5054 6831163 288.5493  12.4543  2.01930704181088
MOLNIYA 1-90            
1 24960U 97054A   20108.97552216 -.00000027  00000-0 -17239-3 0  9990
2 24960  63.4258 353.6103 6384192 300.6169  11.7857  3.18685241182817
MOLNIYA 1-91            
1 25485U 98054A   20106.41618465 -.00000013  00000-0  20477-3 0  9992
2 25485  62.7961 284.3261 7132262 288.5216  10.5620  2.36440038159636
MOLNIYA 3-50            
1 25847U 99036A   20109.03461869  .00000392  00000-0 -64021-3 0  9993
2 25847  62.2675 101.0762 7334270 274.9499  12.8264  2.00652224152265
